start=new Date('2023-05-11T00:00:00.000Z').valueOf();
sats=[{"FILE":"3904555","APOAPSIS":"548.172","TLE_LINE1":"1 47989U 21024N   23130.45435122  .00002456  00000-0  18376-3 0  9996","CENTER_NAME":"EARTH","OBJECT_TYPE":"PAYLOAD","COUNTRY_CODE":"US","RCS_SIZE":"LARGE","MEAN_MOTION_DDOT":"0.0000000000000","GP_ID":"231533100","REF_FRAME":"TEME","OBJECT_ID":"2021-024N","MEAN_MOTION_DOT":"0.00002456","NORAD_CAT_ID":"47989","TIME_SYSTEM":"UTC","CLASSIFICATION_TYPE":"U","RA_OF_ASC_NODE":"209.4900","MEAN_ELEMENT_THEORY":"SGP4","MEAN_ANOMALY":"253.6751","DECAY_DATE":null,"SITE":"AFETR","PERIOD":"95.593","MEAN_MOTION":"15.06389530","TLE_LINE2":"2 47989  53.0528 209.4900 0001338 106.4385 253.6751 15.06389530119884","REV_AT_EPOCH":"11988","INCLINATION":"53.0528","BSTAR":"0.00018376000000","PERIAPSIS":"546.319","ARG_OF_PERICENTER":"106.4385","ECCENTRICITY":"0.00013380","SEMIMAJOR_AXIS":"6925.381","OBJECT_NAME":"STARLINK-2305","EPOCH":"2023-05-10T10:54:15.945408","ELEMENT_SET_NO":"999","EPHEMERIS_TYPE":"0","LAUNCH_DATE":"2021-03-24"},{"PERIAPSIS":"546.451","ECCENTRICITY":"0.00011760","SEMIMAJOR_AXIS":"6925.401","OBJECT_NAME":"STARLINK-2307","ARG_OF_PERICENTER":"82.4822","ELEMENT_SET_NO":"999","EPOCH":"2023-05-10T11:20:49.153632","LAUNCH_DATE":"2021-03-24","EPHEMERIS_TYPE":"0","SITE":"AFETR","MEAN_ELEMENT_THEORY":"SGP4","DECAY_DATE":null,"MEAN_ANOMALY":"277.6301","TLE_LINE2":"2 47990  53.0520 209.3999 0001176  82.4822 277.6301 15.06382942119870","REV_AT_EPOCH":"11987","PERIOD":"95.593","MEAN_MOTION":"15.06382942","BSTAR":"0.00174740000000","INCLINATION":"53.0520","RCS_SIZE":"LARGE","REF_FRAME":"TEME","OBJECT_ID":"2021-024P","MEAN_MOTION_DDOT":"0.0000000000000","GP_ID":"231533340","TIME_SYSTEM":"UTC","MEAN_MOTION_DOT":"0.00025830","NORAD_CAT_ID":"47990","CLASSIFICATION_TYPE":"U","RA_OF_ASC_NODE":"209.3999","FILE":"3904555","OBJECT_TYPE":"PAYLOAD","CENTER_NAME":"EARTH","COUNTRY_CODE":"US","APOAPSIS":"548.080","TLE_LINE1":"1 47990U 21024P   23130.47279113  .00025830  00000-0  17474-2 0  9994"},{"EPOCH":"2023-05-10T13:12:56.207520","ELEMENT_SET_NO":"999","EPHEMERIS_TYPE":"0","LAUNCH_DATE":"2021-03-24","PERIAPSIS":"546.734","ARG_OF_PERICENTER":"88.2858","ECCENTRICITY":"0.00007720","SEMIMAJOR_AXIS":"6925.403","OBJECT_NAME":"STARLINK-2279","PERIOD":"95.593","MEAN_MOTION":"15.06382103","TLE_LINE2":"2 47991  53.0530 224.0543 0000772  88.2858 271.8220 15.06382103119735","REV_AT_EPOCH":"11973","INCLINATION":"53.0530","BSTAR":"0.00223950000000","MEAN_ELEMENT_THEORY":"SGP4","MEAN_ANOMALY":"271.8220","DECAY_DATE":null,"SITE":"AFETR","MEAN_MOTION_DOT":"0.00033217","NORAD_CAT_ID":"47991","TIME_SYSTEM":"UTC","CLASSIFICATION_TYPE":"U","RA_OF_ASC_NODE":"224.0543","RCS_SIZE":"LARGE","MEAN_MOTION_DDOT":"0.0000000000000","GP_ID":"231565482","REF_FRAME":"TEME","OBJECT_ID":"2021-024Q","FILE":"3904830","APOAPSIS":"547.803","TLE_LINE1":"1 47991U 21024Q   23130.55065055  .00033217  00000-0  22395-2 0  9998","OBJECT_TYPE":"PAYLOAD","CENTER_NAME":"EARTH","COUNTRY_CODE":"US"},{"OBJECT_TYPE":"PAYLOAD","CENTER_NAME":"EARTH","COUNTRY_CODE":"US","APOAPSIS":"548.061","TLE_LINE1":"1 47992U 21024R   23130.50505986  .00024038  00000-0  16278-2 0  9990","FILE":"3904716","REF_FRAME":"TEME","OBJECT_ID":"2021-024R","MEAN_MOTION_DDOT":"0.0000000000000","GP_ID":"231541544","RCS_SIZE":"LARGE","CLASSIFICATION_TYPE":"U","RA_OF_ASC_NODE":"219.3386","TIME_SYSTEM":"UTC","MEAN_MOTION_DOT":"0.00024038","NORAD_CAT_ID":"47992","SITE":"AFETR","MEAN_ELEMENT_THEORY":"SGP4","MEAN_ANOMALY":"265.9039","DECAY_DATE":null,"BSTAR":"0.00162780000000","INCLINATION":"53.0522","TLE_LINE2":"2 47992  53.0522 219.3386 0001158  94.2082 265.9039 15.06385138119276","REV_AT_EPOCH":"11927","PERIOD":"95.593","MEAN_MOTION":"15.06385138","OBJECT_NAME":"STARLINK-2229","SEMIMAJOR_AXIS":"6925.394","ECCENTRICITY":"0.00011580","ARG_OF_PERICENTER":"94.2082","PERIAPSIS":"546.457","LAUNCH_DATE":"2021-03-24","EPHEMERIS_TYPE":"0","ELEMENT_SET_NO":"999","EPOCH":"2023-05-10T12:07:17.171904"},{"SITE":"AFETR","MEAN_ELEMENT_THEORY":"SGP4","DECAY_DATE":null,"MEAN_ANOMALY":"284.3927","TLE_LINE2":"2 47993  53.0546 258.6241 0000857  75.7157 284.3927 15.06377885119261","REV_AT_EPOCH":"11926","PERIOD":"95.594","MEAN_MOTION":"15.06377885","BSTAR":"0.00233900000000","INCLINATION":"53.0546","PERIAPSIS":"546.688","ECCENTRICITY":"0.00008570","SEMIMAJOR_AXIS":"6925.416","OBJECT_NAME":"STARLINK-2273","ARG_OF_PERICENTER":"75.7157","ELEMENT_SET_NO":"999","EPOCH":"2023-05-10T15:28:56.854272","LAUNCH_DATE":"2021-03-24","EPHEMERIS_TYPE":"0","FILE":"3904830","OBJECT_TYPE":"PAYLOAD","CENTER_NAME":"EARTH","COUNTRY_CODE":"US","APOAPSIS":"547.875","TLE_LINE1":"1 47993U 21024S   23130.64510248  .00034709  00000-0  23390-2 0  9992","RCS_SIZE":"LARGE","REF_FRAME":"TEME","OBJECT_ID":"2021-024S","MEAN_MOTION_DDOT":"0.0000000000000","GP_ID":"231566485","TIME_SYSTEM":"UTC","MEAN_MOTION_DOT":"0.00034709","NORAD_CAT_ID":"47993","CLASSIFICATION_TYPE":"U","RA_OF_ASC_NODE":"258.6241"},{"MEAN_MOTION":"15.06379079","PERIOD":"95.593","REV_AT_EPOCH":"11854","TLE_LINE2":"2 47994  53.0532 273.3058 0001287  60.4438 299.6679 15.06379079118548","INCLINATION":"53.0532","BSTAR":"0.00242930000000","DECAY_DATE":null,"MEAN_ANOMALY":"299.6679","MEAN_ELEMENT_THEORY":"SGP4","SITE":"AFETR","EPOCH":"2023-05-10T17:10:27.428736","ELEMENT_SET_NO":"999","EPHEMERIS_TYPE":"0","LAUNCH_DATE":"2021-03-24","PERIAPSIS":"546.386","ARG_OF_PERICENTER":"60.4438","ECCENTRICITY":"0.00012870","SEMIMAJOR_AXIS":"6925.413","OBJECT_NAME":"STARLINK-2290","FILE":"3904830","TLE_LINE1":"1 47994U 21024T   23130.71559524  .00036068  00000-0  24293-2 0  9994","APOAPSIS":"548.169","COUNTRY_CODE":"US","OBJECT_TYPE":"PAYLOAD","CENTER_NAME":"EARTH","NORAD_CAT_ID":"47994","MEAN_MOTION_DOT":"0.00036068","TIME_SYSTEM":"UTC","RA_OF_ASC_NODE":"273.3058","CLASSIFICATION_TYPE":"U","RCS_SIZE":"LARGE","GP_ID":"231565233","MEAN_MOTION_DDOT":"0.0000000000000","OBJECT_ID":"2021-024T","REF_FRAME":"TEME"},{"TLE_LINE1":"1 47995U 21024U   23130.59169192  .00031995  00000-0  21587-2 0  9996","APOAPSIS":"547.949","COUNTRY_CODE":"US","OBJECT_TYPE":"PAYLOAD","CENTER_NAME":"EARTH","FILE":"3904830","RA_OF_ASC_NODE":"239.1846","CLASSIFICATION_TYPE":"U","NORAD_CAT_ID":"47995","MEAN_MOTION_DOT":"0.00031995","TIME_SYSTEM":"UTC","GP_ID":"231564982","MEAN_MOTION_DDOT":"0.0000000000000","OBJECT_ID":"2021-024U","REF_FRAME":"TEME","RCS_SIZE":"LARGE","INCLINATION":"53.0530","BSTAR":"0.00215870000000","MEAN_MOTION":"15.06372779","PERIOD":"95.594","REV_AT_EPOCH":"11948","TLE_LINE2":"2 47995  53.0530 239.1846 0000941 101.5767 258.5328 15.06372779119489","MEAN_ANOMALY":"258.5328","DECAY_DATE":null,"MEAN_ELEMENT_THEORY":"SGP4","SITE":"AFETR","EPHEMERIS_TYPE":"0","LAUNCH_DATE":"2021-03-24","EPOCH":"2023-05-10T14:12:02.181888","ELEMENT_SET_NO":"999","ARG_OF_PERICENTER":"101.5767","ECCENTRICITY":"0.00009410","SEMIMAJOR_AXIS":"6925.432","OBJECT_NAME":"STARLINK-2309","PERIAPSIS":"546.645"},{"FILE":"3904555","CENTER_NAME":"EARTH","OBJECT_TYPE":"PAYLOAD","COUNTRY_CODE":"US","APOAPSIS":"548.241","TLE_LINE1":"1 47996U 21024V   23130.36823944  .00003274  00000-0  23859-3 0  9998","TIME_SYSTEM":"UTC","MEAN_MOTION_DOT":"0.00003274","NORAD_CAT_ID":"47996","CLASSIFICATION_TYPE":"U","RA_OF_ASC_NODE":"165.1708","RCS_SIZE":"LARGE","REF_FRAME":"TEME","OBJECT_ID":"2021-024V","MEAN_MOTION_DDOT":"0.0000000000000","GP_ID":"231532854","TLE_LINE2":"2 47996  53.0520 165.1708 0001481  82.8830 277.2327 15.06399414120558","REV_AT_EPOCH":"12055","PERIOD":"95.592","MEAN_MOTION":"15.06399414","BSTAR":"0.00023859000000","INCLINATION":"53.0520","SITE":"AFETR","MEAN_ELEMENT_THEORY":"SGP4","MEAN_ANOMALY":"277.2327","DECAY_DATE":null,"ELEMENT_SET_NO":"999","EPOCH":"2023-05-10T08:50:15.887616","LAUNCH_DATE":"2021-03-24","EPHEMERIS_TYPE":"0","PERIAPSIS":"546.190","OBJECT_NAME":"STARLINK-2260","SEMIMAJOR_AXIS":"6925.350","ECCENTRICITY":"0.00014810","ARG_OF_PERICENTER":"82.8830"},{"COUNTRY_CODE":"US","OBJECT_TYPE":"PAYLOAD","CENTER_NAME":"EARTH","TLE_LINE1":"1 47997U 21024W   23130.69716667  .00029876  00000-0  20170-2 0  9996","APOAPSIS":"548.097","FILE":"3904830","OBJECT_ID":"2021-024W","REF_FRAME":"TEME","GP_ID":"231565985","MEAN_MOTION_DDOT":"0.0000000000000","RCS_SIZE":"LARGE","RA_OF_ASC_NODE":"273.3937","CLASSIFICATION_TYPE":"U","TIME_SYSTEM":"UTC","NORAD_CAT_ID":"47997","MEAN_MOTION_DOT":"0.00029876","SITE":"AFETR","MEAN_ANOMALY":"250.1080","DECAY_DATE":null,"MEAN_ELEMENT_THEORY":"SGP4","BSTAR":"0.00201700000000","INCLINATION":"53.0535","REV_AT_EPOCH":"11906","TLE_LINE2":"2 47997  53.0535 273.3937 0001205 110.0038 250.1080 15.06384024119060","MEAN_MOTION":"15.06384024","PERIOD":"95.593","OBJECT_NAME":"STARLINK-2266","SEMIMAJOR_AXIS":"6925.398","ECCENTRICITY":"0.00012050","ARG_OF_PERICENTER":"110.0038","PERIAPSIS":"546.428","LAUNCH_DATE":"2021-03-24","EPHEMERIS_TYPE":"0","ELEMENT_SET_NO":"999","EPOCH":"2023-05-10T16:43:55.200288"},{"ELEMENT_SET_NO":"999","EPOCH":"2023-05-10T15:19:42.000384","LAUNCH_DATE":"2021-03-24","EPHEMERIS_TYPE":"0","PERIAPSIS":"546.499","ECCENTRICITY":"0.00011510","SEMIMAJOR_AXIS":"6925.432","OBJECT_NAME":"STARLINK-2296","ARG_OF_PERICENTER":"103.9069","REV_AT_EPOCH":"11934","TLE_LINE2":"2 47998  53.0534 248.8917 0001151 103.9069 256.2048 15.06372935119340","MEAN_MOTION":"15.06372935","PERIOD":"95.594","BSTAR":"0.00186520000000","INCLINATION":"53.0534","SITE":"AFETR","DECAY_DATE":null,"MEAN_ANOMALY":"256.2048","MEAN_ELEMENT_THEORY":"SGP4","TIME_SYSTEM":"UTC","NORAD_CAT_ID":"47998","MEAN_MOTION_DOT":"0.00027589","RA_OF_ASC_NODE":"248.8917","CLASSIFICATION_TYPE":"U","RCS_SIZE":"LARGE","OBJECT_ID":"2021-024X","REF_FRAME":"TEME","GP_ID":"231564733","MEAN_MOTION_DDOT":"0.0000000000000","FILE":"3904830","COUNTRY_CODE":"US","CENTER_NAME":"EARTH","OBJECT_TYPE":"PAYLOAD","TLE_LINE1":"1 47998U 21024X   23130.63868056  .00027589  00000-0  18652-2 0  9992","APOAPSIS":"548.094"}];
